{
  "type": "FeatureCollection",
  "features": [
    {
      "type": "Feature",
      "properties": {
        "id": "REGIÃO CENTRO-OESTE",
        "region": "REGIÃO CENTRO-OESTE",
        "region_2": "REGIAO CENTRO-OESTE"
      },
      "geometry": {
        "coordinates": [
          [
            [
              -54.25421624328162,
              -24.091412763632817
            ],
            [
              -52.922016320117294,
              -22.431425373380776
            ],
            [
              -51.70300790813508,
              -20.81208811040598
            ],
            [
              -50.970285668913505,
              -19.916358161038517
            ],
            [
              -50.19815778081082,
              -18.636644602262123
            ],
            [
              -47.39872072344414,
              -18.242721961090325
            ],
            [
              -47.352290285530245,
              -16.107856113849337
            ],
            [
              -46.564308047650485,
              -14.813564528759784
            ],
            [
              -45.982366589762506,
              -15.114652456460377
            ],
            [
              -46.38171677350442,
              -12.924105952915468
            ],
            [
              -47.500038839164375,
              -13.188921867384735
            ],
            [
              -47.686720817129526,
              -13.400797937880512
            ],
            [
              -48.44790495936047,
              -13.275099365511792
            ],
            [
              -49.125320139624364,
              -13.01690030812199
            ],
            [
              -49.28502821452042,
              -13.227253987522957
            ],
            [
              -50.174053086556285,
              -12.88993238550809
            ],
            [
              -50.60317319794407,
              -12.864516465818554
            ],
            [
              -50.73907761846641,
              -11.009452602174619
            ],
            [
              -50.31489152642803,
              -9.935367528028138
            ],
            [
              -56.80452759478953,
              -9.406714364676787
            ],
            [
              -57.548154508925506,
              -9.037203972718501
            ],
            [
              -57.73931855539274,
              -7.877041891618305
            ],
            [
              -58.13126967126115,
              -7.4280829745628125
            ],
            [
              -58.326596815484265,
              -7.852486088430879
            ],
            [
              -58.41319139588951,
              -8.791318907360889
            ],
            [
              -61.391547236220646,
              -8.84122226660017
            ],
            [
              -61.53205478465878,
              -10.166146467682722
            ],
            [
              -61.398797535654495,
              -10.794689940091658
            ],
            [
              -59.87747399048061,
              -11.120811755303109
            ],
            [
              -60.07056911255479,
              -11.73070047350339
            ],
            [
              -59.68575293606182,
              -12.357529663743804
            ],
            [
              -60.56625092931898,
              -13.652088878278036
            ],
            [
              -60.224259656223865,
              -14.901490487424695
            ],
            [
              -60.240049065887774,
              -15.145411173886615
            ],
            [
              -60.592374881339424,
              -15.059293397142923
            ],
            [
              -60.17460272931184,
              -15.499529989718368
            ],
            [
              -60.25987924440261,
              -16.26346542390155
            ],
            [
              -58.234381090111754,
              -16.356771451876995
            ],
            [
              -58.450675565080815,
              -16.749165379955656
            ],
            [
              -58.385039840585364,
              -17.294851970988105
            ],
            [
              -57.757114123400044,
              -17.540423396848908
            ],
            [
              -57.420213612052564,
              -18.245595289321273
            ],
            [
              -57.96000511984944,
              -20.01240720710969
            ],
            [
              -57.94095942951316,
              -21.032982415647623
            ],
            [
              -57.94065818235222,
              -22.08916880095211
            ],
            [
              -56.58217687612519,
              -22.33420389186128
            ],
            [
              -56.33409800804219,
              -22.110528290795628
            ],
            [
              -55.661885737349905,
              -22.66818358328193
            ],
            [
              -55.34496992533644,
              -23.880086716877116
            ],
            [
              -54.93347502505695,
              -24.033061601354518
            ],
            [
              -54.68560333131667,
              -23.88145475404737
            ],
            [
              -54.25421624328162,
              -24.091412763632817
            ]
          ]
        ],
        "type": "Polygon"
      }
    },
    {
      "type": "Feature",
      "properties": {
        "id": "REGIÃO SUDESTE",
        "region": "REGIÃO SUDESTE",
        "region_2": "REGIAO SUDESTE"
      },
      "geometry": {
        "coordinates": [
          [
            [
              -52.94283443154241,
              -22.487187738469828
            ],
            [
              -49.95847209575737,
              -22.94769204862311
            ],
            [
              -49.555469564971645,
              -23.345280126111376
            ],
            [
              -49.206474081519616,
              -24.65148119809878
            ],
            [
              -48.069322989065995,
              -25.277307359663595
            ],
            [
              -46.39216651814979,
              -23.94936547255098
            ],
            [
              -45.31434515998831,
              -23.98532611539173
            ],
            [
              -44.0227212565685,
              -22.974751289490456
            ],
            [
              -41.96471540273595,
              -23.000271683711134
            ],
            [
              -41.663870248150545,
              -22.243408622662358
            ],
            [
              -40.97218166049879,
              -22.02017758908694
            ],
            [
              -41.014522253858956,
              -21.314931297432906
            ],
            [
              -40.07498372973788,
              -19.92684541385971
            ],
            [
              -39.67942083407979,
              -19.417878787880156
            ],
            [
              -39.6920789622169,
              -18.346510730738274
            ],
            [
              -40.26004226359919,
              -18.038103597546183
            ],
            [
              -40.314783184748194,
              -17.657097185645682
            ],
            [
              -40.60137076453921,
              -17.45346286795528
            ],
            [
              -40.50592291419005,
              -16.879642758996653
            ],
            [
              -40.30654665617058,
              -16.765632181824742
            ],
            [
              -40.22525830066604,
              -16.493340449310196
            ],
            [
              -39.943403441537555,
              -16.233284424985612
            ],
            [
              -39.995385566436084,
              -15.978012413845178
            ],
            [
              -41.327935546508826,
              -15.733541886691697
            ],
            [
              -41.76449981427669,
              -15.054911691717948
            ],
            [
              -42.573235475767746,
              -14.989330548997913
            ],
            [
              -43.07714111047983,
              -14.711429834004335
            ],
            [
              -43.589346128498335,
              -14.755811195049077
            ],
            [
              -44.1172475002235,
              -14.295178602284963
            ],
            [
              -45.36353183922712,
              -14.83206290801673
            ],
            [
              -45.90675305674941,
              -15.131370895555264
            ],
            [
              -46.56452998446625,
              -14.883533467070748
            ],
            [
              -47.32824010714779,
              -16.07277094041443
            ],
            [
              -47.359748224611934,
              -18.227816165090374
            ],
            [
              -50.19698677473011,
              -18.653339168631305
            ],
            [
              -50.78815288319494,
              -19.66890352185804
            ],
            [
              -51.48708526563592,
              -20.58746415563587
            ],
            [
              -52.94283443154241,
              -22.487187738469828
            ]
          ]
        ],
        "type": "Polygon"
      }
    },
    {
      "type": "Feature",
      "properties": {
        "id": "REGIÃO SUL",
        "region": "REGIÃO SUL",
        "region_2": "REGIAO SUL"
      },
      "geometry": {
        "coordinates": [
          [
            [
              -54.30713769710327,
              -24.077029036025976
            ],
            [
              -54.22505907936221,
              -24.331913727686597
            ],
            [
              -54.355061841329274,
              -24.608006603872255
            ],
            [
              -54.58256684265692,
              -25.53041551164928
            ],
            [
              -54.420063217911505,
              -25.69648795917381
            ],
            [
              -54.14922385368533,
              -25.540190885990015
            ],
            [
              -53.84588407432976,
              -25.618365012167416
            ],
            [
              -53.80255110336081,
              -26.018201988842335
            ],
            [
              -53.62921470338708,
              -26.34874482210718
            ],
            [
              -53.683381136472136,
              -26.900774925758846
            ],
            [
              -53.92171939715173,
              -27.170966292448576
            ],
            [
              -55.58873473435939,
              -28.1675943108306
            ],
            [
              -56.05457811680964,
              -28.586991792731652
            ],
            [
              -56.542089317963445,
              -29.146747591277972
            ],
            [
              -57.0621018641756,
              -29.78812497655983
            ],
            [
              -57.58211380780236,
              -30.257123779396146
            ],
            [
              -57.235439088253116,
              -30.29454746132081
            ],
            [
              -56.9862667373403,
              -30.079165545343443
            ],
            [
              -56.758761715412476,
              -30.107285452177486
            ],
            [
              -56.10874907952558,
              -30.66799772387116
            ],
            [
              -55.80541240519878,
              -31.040008613615726
            ],
            [
              -55.54540534694303,
              -30.83558149947362
            ],
            [
              -55.11206070543072,
              -31.345832992644112
            ],
            [
              -54.98205808875613,
              -31.36433573482556
            ],
            [
              -54.48371333743971,
              -31.530697761446007
            ],
            [
              -54.06120759356699,
              -31.936114307737256
            ],
            [
              -53.822868833988736,
              -32.03719025210519
            ],
            [
              -53.54119338959303,
              -32.54089507649041
            ],
            [
              -53.12951491603617,
              -32.714251003997475
            ],
            [
              -53.33535332284832,
              -33.05087217885222
            ],
            [
              -53.40035495390801,
              -33.693225136226204
            ],
            [
              -52.6625183956915,
              -33.24614715491023
            ],
            [
              -52.03684383570868,
              -32.18209088658067
            ],
            [
              -50.664064196558726,
              -31.13396903388682
            ],
            [
              -49.74209009053286,
              -29.42583513772657
            ],
            [
              -48.68737235604385,
              -28.517848690616006
            ],
            [
              -48.460953236420764,
              -27.81808631752729
            ],
            [
              -48.26480101196379,
              -27.528284400464152
            ],
            [
              -48.53581533045221,
              -27.224530630412882
            ],
            [
              -48.637202736193274,
              -26.62687463100835
            ],
            [
              -48.13741207326346,
              -25.297598167379213
            ],
            [
              -49.19807871493513,
              -24.6832497552212
            ],
            [
              -49.58891896541081,
              -23.329963404527398
            ],
            [
              -49.96518904413635,
              -22.969320101582344
            ],
            [
              -52.96642254438452,
              -22.50544378787
            ],
            [
              -53.625197570516676,
              -23.328508552093542
            ],
            [
              -54.243839966437015,
              -24.109994207602995
            ],
            [
              -54.30713769710327,
              -24.077029036025976
            ]
          ]
        ],
        "type": "Polygon"
      }
    },
    {
      "type": "Feature",
      "properties": {
        "id": "REGIÃO NORTE",
        "region": "REGIÃO NORTE",
        "region_2": "REGIAO NORTE"
      },
      "geometry": {
        "coordinates": [
          [
            [
              -48.755528372623075,
              -5.265766689134139
            ],
            [
              -47.285555551708285,
              -4.124589554266052
            ],
            [
              -46.29483430186983,
              -1.051641380943778
            ],
            [
              -47.856348054761355,
              -0.5536167657660513
            ],
            [
              -49.01600596926539,
              -1.9594338184275273
            ],
            [
              -49.38711618245577,
              -1.6667076207504579
            ],
            [
              -48.48313106139804,
              -0.2685780410829466
            ],
            [
              -50.40756274395915,
              -0.10820333790799452
            ],
            [
              -49.85772926730354,
              0.8231034659444276
            ],
            [
              -49.912352836572154,
              1.6658043868041972
            ],
            [
              -50.65154998478087,
              1.899005665429172
            ],
            [
              -51.103577570646195,
              3.548227385121237
            ],
            [
              -51.56991008608023,
              4.389736238934674
            ],
            [
              -51.81278120209265,
              3.9423108797129913
            ],
            [
              -52.360055253416135,
              3.2060159804035777
            ],
            [
              -53.00272828265389,
              2.196783984238891
            ],
            [
              -54.65006283641884,
              2.3122002344898647
            ],
            [
              -54.99149857683307,
              2.746973763352443
            ],
            [
              -56.13589793525409,
              2.3370292265958312
            ],
            [
              -55.95796181473365,
              1.763461339687737
            ],
            [
              -56.70334061937989,
              2.133431816939776
            ],
            [
              -57.213223828369166,
              2.829354980797632
            ],
            [
              -57.32173443357925,
              3.4003593147980666
            ],
            [
              -57.6696647293862,
              3.363034593331051
            ],
            [
              -57.45087873670792,
              2.7922962902970454
            ],
            [
              -57.81632999464527,
              2.3885121075453384
            ],
            [
              -57.96217945411661,
              1.766843406746034
            ],
            [
              -58.76343194177298,
              1.2930380734082547
            ],
            [
              -59.65943775298638,
              1.8054802486478678
            ],
            [
              -59.71626987701035,
              2.2633123806352415
            ],
            [
              -60.012021536359455,
              2.6316316317687836
            ],
            [
              -59.872945723961905,
              3.7205794554079006
            ],
            [
              -59.58246538761641,
              4.00896274543237
            ],
            [
              -59.70996993625765,
              4.465799773512472
            ],
            [
              -60.07965703686234,
              4.576248682235715
            ],
            [
              -59.945381526511824,
              5.214890200809876
            ],
            [
              -60.72110042298027,
              5.215243700022384
            ],
            [
              -61.037024437389775,
              4.541770950277154
            ],
            [
              -63.06321569165196,
              3.7088845121588747
            ],
            [
              -64.83024400781231,
              4.288257243282544
            ],
            [
              -64.11803317174771,
              3.2724267656324173
            ],
            [
              -63.97258235811408,
              2.4722820610250267
            ],
            [
              -63.35415294481437,
              2.4730140367062745
            ],
            [
              -63.445146797885585,
              2.1083027354485324
            ],
            [
              -65.56795448145164,
              0.7574975198584468
            ],
            [
              -66.25040098411394,
              0.749579776413313
            ],
            [
              -66.87700733283178,
              1.2037176887414631
            ],
            [
              -67.11979610512287,
              1.126121853836196
            ],
            [
              -67.22562213756252,
              1.9367777075510588
            ],
            [
              -67.41067559763812,
              2.265574310000588
            ],
            [
              -67.9572032337848,
              1.8157820744851847
            ],
            [
              -68.22011487473587,
              1.9964319378139095
            ],
            [
              -68.29699701626188,
              1.8288021707622875
            ],
            [
              -68.20328193194435,
              1.7193401757886875
            ],
            [
              -69.93037799042526,
              1.7039542222057378
            ],
            [
              -69.8606911363605,
              1.1066338414299963
            ],
            [
              -69.20233876748644,
              1.085501599305772
            ],
            [
              -69.1326688784951,
              0.6376584194584467
            ],
            [
              -69.9494932049778,
              0.5396310604921553
            ],
            [
              -70.05618095388829,
              -0.17570675389154644
            ],
            [
              -69.57002227806484,
              -0.5427557368040112
            ],
            [
              -69.66065857343858,
              -0.7441623520468568
            ],
            [
              -69.40558830046183,
              -1.1289295760815605
            ],
            [
              -69.90422611375226,
              -4.2424940785089404
            ],
            [
              -70.16179116089303,
              -4.2997561692799735
            ],
            [
              -70.32375670676076,
              -4.119611346573777
            ],
            [
              -70.97284342920481,
              -4.206118594650931
            ],
            [
              -71.15360976035224,
              -4.366738817369708
            ],
            [
              -71.80633999116027,
              -4.470020034314857
            ],
            [
              -72.86814049558474,
              -5.127400600428288
            ],
            [
              -73.00034938629099,
              -5.685031446089198
            ],
            [
              -73.24487849331807,
              -6.170577350350044
            ],
            [
              -73.13665303673926,
              -6.423736737812732
            ],
            [
              -73.72227788322455,
              -7.073490836093015
            ],
            [
              -73.78333998359777,
              -7.345717630956898
            ],
            [
              -73.91935500004824,
              -7.5821621766386045
            ],
            [
              -73.69777581079512,
              -7.745727667263196
            ],
            [
              -73.28813110136535,
              -8.656952606517478
            ],
            [
              -72.94290946964797,
              -9.058333748356603
            ],
            [
              -73.21409623839638,
              -9.409913392790912
            ],
            [
              -72.26586483947534,
              -9.568913947159558
            ],
            [
              -72.14401511499624,
              -9.937389777613603
            ],
            [
              -71.27370570628266,
              -9.987167543120066
            ],
            [
              -70.58571715285653,
              -9.46883130065953
            ],
            [
              -70.59614635427806,
              -10.925678209434707
            ],
            [
              -69.65510884912048,
              -10.89153586827483
            ],
            [
              -68.71515815246477,
              -11.140608309455217
            ],
            [
              -67.83059314480175,
              -10.694762034500968
            ],
            [
              -66.54983786699154,
              -9.853946856903747
            ],
            [
              -65.44473391942434,
              -9.697111209651226
            ],
            [
              -65.38721542004727,
              -10.601853551826665
            ],
            [
              -65.31227055211241,
              -11.510858860254501
            ],
            [
              -65.04659818457918,
              -11.980565797217679
            ],
            [
              -64.137976062772,
              -12.52897937620925
            ],
            [
              -63.535194680469644,
              -12.528032653674018
            ],
            [
              -62.5985529344415,
              -13.104263349171632
            ],
            [
              -62.081943174627526,
              -13.116441689045388
            ],
            [
              -61.78601975786265,
              -13.539626005836581
            ],
            [
              -61.391524838052675,
              -13.514545343863901
            ],
            [
              -61.391524838052675,
              -13.514545343863901
            ],
            [
              -60.99702991824271,
              -13.48946468189122
            ],
            [
              -60.69458210002283,
              -13.696092955011821
            ],
            [
              -60.65541344527166,
              -13.595827442142507
            ],
            [
              -60.55585664966915,
              -13.540997347637528
            ],
            [
              -60.46224746734622,
              -13.483112519085068
            ],
            [
              -60.050515562031876,
              -12.727798110276012
            ],
            [
              -59.79867039593917,
              -12.38931345486914
            ],
            [
              -60.15960264098281,
              -11.662951067310829
            ],
            [
              -59.98811623230583,
              -11.155444876987673
            ],
            [
              -61.444674961390774,
              -10.882344083307416
            ],
            [
              -61.58966067872389,
              -10.111288454779185
            ],
            [
              -61.54981704697093,
              -9.375610326384546
            ],
            [
              -61.537094102171224,
              -8.77974582239996
            ],
            [
              -58.43746987345587,
              -8.747780570987402
            ],
            [
              -58.282212507957695,
              -8.008903114581187
            ],
            [
              -58.34878028897364,
              -7.798140105674747
            ],
            [
              -58.21598671418464,
              -7.61372728018398
            ],
            [
              -58.1762560196035,
              -7.42936162270307
            ],
            [
              -58.0966461196702,
              -7.337133442378786
            ],
            [
              -57.883691813984626,
              -7.6661463162834025
            ],
            [
              -57.6833711815147,
              -8.034854305222197
            ],
            [
              -57.6423879554157,
              -8.390945916653394
            ],
            [
              -57.56022472887511,
              -8.906422479710173
            ],
            [
              -56.84067038567292,
              -9.304130076571695
            ],
            [
              -50.231976225994686,
              -9.859991635128438
            ],
            [
              -50.6202446922392,
              -10.763357812253943
            ],
            [
              -50.7238251326433,
              -11.677575305092134
            ],
            [
              -50.609044731020106,
              -12.820413665652097
            ],
            [
              -50.210482691849876,
              -12.375029255212823
            ],
            [
              -50.28725807373306,
              -12.778945343807663
            ],
            [
              -49.362522047174764,
              -13.174465268429827
            ],
            [
              -49.09589238636494,
              -12.805840269146117
            ],
            [
              -48.57054125945592,
              -13.074064114119011
            ],
            [
              -48.4843951820433,
              -13.243416524963393
            ],
            [
              -47.91601795875795,
              -13.236161530433748
            ],
            [
              -47.73152723011626,
              -13.35215788507702
            ],
            [
              -47.595357137799624,
              -13.12532469235343
            ],
            [
              -46.80546369435888,
              -13.032765032121063
            ],
            [
              -46.27932642158305,
              -12.849823602622678
            ],
            [
              -46.336401972281124,
              -11.60672216732246
            ],
            [
              -46.52011699956864,
              -11.341688878266652
            ],
            [
              -45.70345024231676,
              -10.171607335661818
            ],
            [
              -46.40697839188417,
              -10.155512171060707
            ],
            [
              -46.63693403207088,
              -9.70645684298809
            ],
            [
              -46.59787850913057,
              -9.469119794158331
            ],
            [
              -46.7984413897816,
              -9.363958169499114
            ],
            [
              -47.01254220431636,
              -9.008919488961993
            ],
            [
              -46.787653794637606,
              -8.404021799519313
            ],
            [
              -46.50874559635352,
              -8.245644619693053
            ],
            [
              -46.456185968833495,
              -7.969385594957174
            ],
            [
              -46.708871808715,
              -7.878112100411826
            ],
            [
              -46.98751366879998,
              -8.036463017648884
            ],
            [
              -47.77015519443151,
              -7.155579419431049
            ],
            [
              -47.43909257840755,
              -6.462777092057252
            ],
            [
              -47.44187916622846,
              -5.53531558083219
            ],
            [
              -48.17329597688939,
              -5.5756019768676595
            ],
            [
              -48.755528372623075,
              -5.265766689134139
            ]
          ]
        ],
        "type": "Polygon"
      }
    },
    {
      "type": "Feature",
      "properties": {
        "id": "REGIÃO NORDESTE",
        "region": "REGIÃO NORDESTE",
        "region_2": "REGIAO NORDESTE"
      },
      "geometry": {
        "coordinates": [
          [
            [
              -39.9132009964417,
              -18.176920406959198
            ],
            [
              -39.65432504734429,
              -18.32818812344121
            ],
            [
              -39.52012662088774,
              -18.078322473733564
            ],
            [
              -39.09609954532894,
              -17.707202002673498
            ],
            [
              -39.17860086199923,
              -17.445039724787136
            ],
            [
              -38.97693762108838,
              -16.436666221312905
            ],
            [
              -38.83943744611801,
              -15.78499745969333
            ],
            [
              -38.976941780526204,
              -15.148919922003302
            ],
            [
              -38.903613968744196,
              -14.360021847167374
            ],
            [
              -38.857781122786065,
              -13.434636139646088
            ],
            [
              -38.61980612250406,
              -12.95996711217596
            ],
            [
              -38.47314285229612,
              -13.058211162739212
            ],
            [
              -37.758172723995415,
              -12.235360799020398
            ],
            [
              -37.01569004005529,
              -10.978338819736933
            ],
            [
              -36.111496024589485,
              -10.213304660075423
            ],
            [
              -35.69899649165987,
              -9.70771178306832
            ],
            [
              -35.1668652431716,
              -9.074308393792819
            ],
            [
              -35.056877641392475,
              -8.648604372850912
            ],
            [
              -34.827697532005004,
              -8.095408730456711
            ],
            [
              -34.781866210698524,
              -7.205078060611001
            ],
            [
              -35.185201597290956,
              -5.8572478080392045
            ],
            [
              -35.42702933614112,
              -5.169635587171371
            ],
            [
              -36.279473843390946,
              -5.032688694130158
            ],
            [
              -37.746048340972436,
              -4.566859132069808
            ],
            [
              -38.51276056368005,
              -3.6944954154747194
            ],
            [
              -40.07094398140032,
              -2.8068494666083126
            ],
            [
              -40.785880914939014,
              -2.8709327923844654
            ],
            [
              -41.702462803290274,
              -2.889241913903973
            ],
            [
              -42.289074773216356,
              -2.7519196939608577
            ],
            [
              -43.62120098528186,
              -2.2200135170385664
            ],
            [
              -43.841192977193145,
              -2.5680074675985054
            ],
            [
              -44.34530288985627,
              -2.284124513814916
            ],
            [
              -44.45529600944434,
              -2.119261413691234
            ],
            [
              -44.49195458329902,
              -1.7803229425558698
            ],
            [
              -46.2609587169286,
              -1.0564526238667327
            ],
            [
              -47.26061609516239,
              -4.13762515525913
            ],
            [
              -48.71800490578852,
              -5.2611787971621595
            ],
            [
              -48.158882685148455,
              -5.544060311406085
            ],
            [
              -47.42560199875052,
              -5.49845213929224
            ],
            [
              -47.407267662239974,
              -6.464720506641427
            ],
            [
              -47.7372130006614,
              -7.147267526584201
            ],
            [
              -46.9764721816542,
              -7.992735699344436
            ],
            [
              -46.71064896482562,
              -7.86562730505149
            ],
            [
              -46.435652500170136,
              -7.974651222322166
            ],
            [
              -46.499813074083875,
              -8.265048611807487
            ],
            [
              -46.78395385607831,
              -8.392048404384
            ],
            [
              -46.99479454830433,
              -8.999046613852983
            ],
            [
              -46.79313493819714,
              -9.351961466414977
            ],
            [
              -46.5731440656202,
              -9.460486509714642
            ],
            [
              -46.609807252290636,
              -9.71355673074109
            ],
            [
              -46.42648016801169,
              -10.101839085330056
            ],
            [
              -45.63975664294031,
              -10.173244247407226
            ],
            [
              -46.43507429333462,
              -11.31161039740907
            ],
            [
              -46.36995768459013,
              -11.6562330277674
            ],
            [
              -46.33281229238571,
              -12.846155018514196
            ],
            [
              -45.99362750156547,
              -15.102311627595142
            ],
            [
              -44.11636248453479,
              -14.239633119029904
            ],
            [
              -43.615701548261086,
              -14.706399819268043
            ],
            [
              -43.08998554310247,
              -14.668566513234026
            ],
            [
              -42.586343491726296,
              -14.946268480165202
            ],
            [
              -41.75079964976965,
              -15.02920643778144
            ],
            [
              -41.32262212404498,
              -15.690178769353409
            ],
            [
              -39.91308415929771,
              -15.955876793438833
            ],
            [
              -39.91562450529504,
              -16.300739271141687
            ],
            [
              -40.25924115042855,
              -16.578934385522984
            ],
            [
              -40.25933773567431,
              -16.857291449284503
            ],
            [
              -40.474435520458876,
              -16.868834948448193
            ],
            [
              -40.57091477280072,
              -17.08846013865368
            ],
            [
              -40.55336877956344,
              -17.47710730910441
            ],
            [
              -40.28848796708263,
              -17.68163551913952
            ],
            [
              -40.21873463257711,
              -17.862916288818326
            ],
            [
              -40.22453806558042,
              -17.979297953464823
            ],
            [
              -39.9132009964417,
              -18.176920406959198
            ]
          ]
        ],
        "type": "Polygon"
      }
    }
  ]
}